{"type": "FeatureCollection", "features": [{"type": "Feature", "properties": {"norad_id": 26766, "name": "INTELSAT 10 (IS-10)", "group": "intelsat", "lat": 4.853009798496183, "lon": 95.16183852762043, "alt_km": 36156.43065646631, "timestamp": "2025-12-04T13:52:00.115355+00:00", "meta": {"OBJECT_NAME": "INTELSAT 10 (IS-10)", "OBJECT_ID": "2001-019A", "EPOCH": "2025-12-03T11:53:38.525856", "MEAN_MOTION": 0.99078102, "ECCENTRICITY": 0.00077711, "INCLINATION": 8.6063, "RA_OF_ASC_NODE": 61.2471, "ARG_OF_PERICENTER": 218.7876, "MEAN_ANOMALY": 149.4282, "EPHEMERIS_TYPE": 0, "CLASSIFICATION_TYPE": "U", "NORAD_CAT_ID": 26766, "ELEMENT_SET_NO": 999, "REV_AT_EPOCH": 4364, "BSTAR": 0, "MEAN_MOTION_DOT": -1.56e-06, "MEAN_MOTION_DDOT": 0}, "tle": {"line1": "1 26766U 01019A   25337.49558479 -.00000156  00000+0  00000+0 0  9990", "line2": "2 26766   8.6063  61.2471 0007771 218.7876 149.4282  0.99078102 43647"}}, "geometry": {"type": "Point", "coordinates": [95.16183852762043, 4.853009798496183]}}, {"type": "Feature", "properties": {"norad_id": 26900, "name": "INTELSAT 902 (IS-902)", "group": "intelsat", "lat": 2.140176808142449, "lon": -128.4164391740926, "alt_km": 35769.14785748784, "timestamp": "2025-12-04T13:52:00.115378+00:00", "meta": {"OBJECT_NAME": "INTELSAT 902 (IS-902)", "OBJECT_ID": "2001-039A", "EPOCH": "2025-12-01T16:59:59.311968", "MEAN_MOTION": 1.00270327, "ECCENTRICITY": 0.00043097, "INCLINATION": 5.6187, "RA_OF_ASC_NODE": 74.2002, "ARG_OF_PERICENTER": 175.119, "MEAN_ANOMALY": 26.3816, "EPHEMERIS_TYPE": 0, "CLASSIFICATION_TYPE": "U", "NORAD_CAT_ID": 26900, "ELEMENT_SET_NO": 999, "REV_AT_EPOCH": 8871, "BSTAR": 0, "MEAN_MOTION_DOT": -2.63e-06, "MEAN_MOTION_DDOT": 0}, "tle": {"line1": "1 26900U 01039A   25335.70832537 -.00000263  00000+0  00000+0 0  9993", "line2": "2 26900   5.6187  74.2002 0004309 175.1190  26.3816  1.00270327 88713"}}, "geometry": {"type": "Point", "coordinates": [-128.4164391740926, 2.140176808142449]}}, {"type": "Feature", "properties": {"norad_id": 27380, "name": "INTELSAT 904 (IS-904)", "group": "intelsat", "lat": 0.13008101975086803, "lon": -109.86528856637837, "alt_km": 35780.5514481209, "timestamp": "2025-12-04T13:52:00.115394+00:00", "meta": {"OBJECT_NAME": "INTELSAT 904 (IS-904)", "OBJECT_ID": "2002-007A", "EPOCH": "2025-12-04T03:15:07.422048", "MEAN_MOTION": 1.00269112, "ECCENTRICITY": 0.0001653, "INCLINATION": 6.4321, "RA_OF_ASC_NODE": 71.5299, "ARG_OF_PERICENTER": 204.3424, "MEAN_ANOMALY": 174.6206, "EPHEMERIS_TYPE": 0, "CLASSIFICATION_TYPE": "U", "NORAD_CAT_ID": 27380, "ELEMENT_SET_NO": 999, "REV_AT_EPOCH": 4981, "BSTAR": 0, "MEAN_MOTION_DOT": -2.13e-06, "MEAN_MOTION_DDOT": 0}, "tle": {"line1": "1 27380U 02007A   25338.13550257 -.00000213  00000+0  00000+0 0  9993", "line2": "2 27380   6.4321  71.5299 0001653 204.3424 174.6206  1.00269112 49815"}}, "geometry": {"type": "Point", "coordinates": [-109.86528856637837, 0.13008101975086803]}}, {"type": "Feature", "properties": {"norad_id": 27426, "name": "DIRECTV 5 (TEMPO 1)", "group": "intelsat", "lat": 4.362177045100269, "lon": 171.47944878545968, "alt_km": 35787.66976885531, "timestamp": "2025-12-04T13:52:00.115407+00:00", "meta": {"OBJECT_NAME": "DIRECTV 5 (TEMPO 1)", "OBJECT_ID": "2002-023A", "EPOCH": "2025-12-04T06:21:13.546368", "MEAN_MOTION": 1.00271243, "ECCENTRICITY": 0.0003833, "INCLINATION": 4.3791, "RA_OF_ASC_NODE": 77.7519, "ARG_OF_PERICENTER": 190.9964, "MEAN_ANOMALY": 149.7746, "EPHEMERIS_TYPE": 0, "CLASSIFICATION_TYPE": "U", "NORAD_CAT_ID": 27426, "ELEMENT_SET_NO": 999, "REV_AT_EPOCH": 8616, "BSTAR": 0, "MEAN_MOTION_DOT": -4.4e-07, "MEAN_MOTION_DDOT": 0}, "tle": {"line1": "1 27426U 02023A   25338.26474012 -.00000044  00000+0  00000+0 0  9992", "line2": "2 27426   4.3791  77.7519 0003833 190.9964 149.7746  1.00271243 86167"}}, "geometry": {"type": "Point", "coordinates": [171.47944878545968, 4.362177045100269]}}, {"type": "Feature", "properties": {"norad_id": 27438, "name": "INTELSAT 905 (IS-905)", "group": "intelsat", "lat": 5.971237483481843, "lon": 144.3287138417197, "alt_km": 35790.74427926934, "timestamp": "2025-12-04T13:52:00.115419+00:00", "meta": {"OBJECT_NAME": "INTELSAT 905 (IS-905)", "OBJECT_ID": "2002-027A", "EPOCH": "2025-12-03T09:40:44.149728", "MEAN_MOTION": 1.00273288, "ECCENTRICITY": 0.00031296, "INCLINATION": 6.2606, "RA_OF_ASC_NODE": 72.1621, "ARG_OF_PERICENTER": 189.1417, "MEAN_ANOMALY": 179.1858, "EPHEMERIS_TYPE": 0, "CLASSIFICATION_TYPE": "U", "NORAD_CAT_ID": 27438, "ELEMENT_SET_NO": 999, "REV_AT_EPOCH": 4940, "BSTAR": 0, "MEAN_MOTION_DOT": 1.09e-06, "MEAN_MOTION_DDOT": 0}, "tle": {"line1": "1 27438U 02027A   25337.40328877  .00000109  00000+0  00000+0 0  9992", "line2": "2 27438   6.2606  72.1621 0003129 189.1417 179.1858  1.00273288 49408"}}, "geometry": {"type": "Point", "coordinates": [144.3287138417197, 5.971237483481843]}}, {"type": "Feature", "properties": {"norad_id": 27445, "name": "GALAXY 3C (G-3C)", "group": "intelsat", "lat": 3.097771070504857, "lon": -173.19977690251088, "alt_km": 35780.76505140895, "timestamp": "2025-12-04T13:52:00.115432+00:00", "meta": {"OBJECT_NAME": "GALAXY 3C (G-3C)", "OBJECT_ID": "2002-030A", "EPOCH": "2025-12-04T06:25:35.626944", "MEAN_MOTION": 1.00270421, "ECCENTRICITY": 0.00012692, "INCLINATION": 3.2417, "RA_OF_ASC_NODE": 80.5935, "ARG_OF_PERICENTER": 101.2419, "MEAN_ANOMALY": 253.0476, "EPHEMERIS_TYPE": 0, "CLASSIFICATION_TYPE": "U", "NORAD_CAT_ID": 27445, "ELEMENT_SET_NO": 999, "REV_AT_EPOCH": 4453, "BSTAR": 0, "MEAN_MOTION_DOT": -1.38e-06, "MEAN_MOTION_DDOT": 0}, "tle": {"line1": "1 27445U 02030A   25338.26777346 -.00000138  00000+0  00000+0 0  9991", "line2": "2 27445   3.2417  80.5935 0001269 101.2419 253.0476  1.00270421 44537"}}, "geometry": {"type": "Point", "coordinates": [-173.19977690251088, 3.097771070504857]}}, {"type": "Feature", "properties": {"norad_id": 27513, "name": "INTELSAT 906 (IS-906)", "group": "intelsat", "lat": -5.3031605945731375, "lon": -14.145565676991717, "alt_km": 35780.838231988055, "timestamp": "2025-12-04T13:52:00.115459+00:00", "meta": {"OBJECT_NAME": "INTELSAT 906 (IS-906)", "OBJECT_ID": "2002-041A", "EPOCH": "2025-12-04T05:28:17.651712", "MEAN_MOTION": 1.002733, "ECCENTRICITY": 0.00061181, "INCLINATION": 5.3074, "RA_OF_ASC_NODE": 75.3323, "ARG_OF_PERICENTER": 192.8955, "MEAN_ANOMALY": 311.2929, "EPHEMERIS_TYPE": 0, "CLASSIFICATION_TYPE": "U", "NORAD_CAT_ID": 27513, "ELEMENT_SET_NO": 999, "REV_AT_EPOCH": 8507, "BSTAR": 0, "MEAN_MOTION_DOT": 2.5e-07, "MEAN_MOTION_DDOT": 0}, "tle": {"line1": "1 27513U 02041A   25338.22798208  .00000025  00000+0  00000+0 0  9999", "line2": "2 27513   5.3074  75.3323 0006118 192.8955 311.2929  1.00273300 85070"}}, "geometry": {"type": "Point", "coordinates": [-14.145565676991717, -5.3031605945731375]}}, {"type": "Feature", "properties": {"norad_id": 27954, "name": "GALAXY 13 (HORIZONS-1)", "group": "intelsat", "lat": 0.6534402133873802, "lon": 131.60630370318472, "alt_km": 35789.67078595366, "timestamp": "2025-12-04T13:52:00.115474+00:00", "meta": {"OBJECT_NAME": "GALAXY 13 (HORIZONS-1)", "OBJECT_ID": "2003-044A", "EPOCH": "2025-12-04T06:09:52.133760", "MEAN_MOTION": 1.00272905, "ECCENTRICITY": 0.00020669, "INCLINATION": 0.9136, "RA_OF_ASC_NODE": 86.5773, "ARG_OF_PERICENTER": 162.365, "MEAN_ANOMALY": 126.8573, "EPHEMERIS_TYPE": 0, "CLASSIFICATION_TYPE": "U", "NORAD_CAT_ID": 27954, "ELEMENT_SET_NO": 999, "REV_AT_EPOCH": 4461, "BSTAR": 0, "MEAN_MOTION_DOT": 1.48e-06, "MEAN_MOTION_DDOT": 0}, "tle": {"line1": "1 27954U 03044A   25338.25685340  .00000148  00000+0  00000+0 0  9993", "line2": "2 27954   0.9136  86.5773 0002066 162.3650 126.8573  1.00272905 44614"}}, "geometry": {"type": "Point", "coordinates": [131.60630370318472, 0.6534402133873802]}}, {"type": "Feature", "properties": {"norad_id": 28358, "name": "INTELSAT 10-02", "group": "intelsat", "lat": -0.026893836538016667, "lon": -79.36395339253602, "alt_km": 35781.79471387301, "timestamp": "2025-12-04T13:52:00.115486+00:00", "meta": {"OBJECT_NAME": "INTELSAT 10-02", "OBJECT_ID": "2004-022A", "EPOCH": "2025-12-04T05:09:41.933088", "MEAN_MOTION": 1.00270514, "ECCENTRICITY": 0.00010974, "INCLINATION": 0.039, "RA_OF_ASC_NODE": 80.5957, "ARG_OF_PERICENTER": 197.6541, "MEAN_ANOMALY": 231.4749, "EPHEMERIS_TYPE": 0, "CLASSIFICATION_TYPE": "U", "NORAD_CAT_ID": 28358, "ELEMENT_SET_NO": 999, "REV_AT_EPOCH": 7860, "BSTAR": 0, "MEAN_MOTION_DOT": 5e-08, "MEAN_MOTION_DDOT": 0}, "tle": {"line1": "1 28358U 04022A   25338.21506867  .00000005  00000+0  00000+0 0  9993", "line2": "2 28358   0.0390  80.5957 0001097 197.6541 231.4749  1.00270514 78605"}}, "geometry": {"type": "Point", "coordinates": [-79.36395339253602, -0.026893836538016667]}}, {"type": "Feature", "properties": {"norad_id": 28626, "name": "XM-3 (RHYTHM)", "group": "intelsat", "lat": 0.01110298617045065, "lon": 74.67624440370295, "alt_km": 36159.526827073634, "timestamp": "2025-12-04T13:52:00.115499+00:00", "meta": {"OBJECT_NAME": "XM-3 (RHYTHM)", "OBJECT_ID": "2005-008A", "EPOCH": "2025-12-04T05:54:00.188064", "MEAN_MOTION": 0.98954927, "ECCENTRICITY": 9.775e-05, "INCLINATION": 0.1512, "RA_OF_ASC_NODE": 80.896, "ARG_OF_PERICENTER": 261.3261, "MEAN_ANOMALY": 334.211, "EPHEMERIS_TYPE": 0, "CLASSIFICATION_TYPE": "U", "NORAD_CAT_ID": 28626, "ELEMENT_SET_NO": 999, "REV_AT_EPOCH": 4066, "BSTAR": 0, "MEAN_MOTION_DOT": -2.53e-06, "MEAN_MOTION_DDOT": 0}, "tle": {"line1": "1 28626U 05008A   25338.24583551 -.00000253  00000+0  00000+0 0  9990", "line2": "2 28626   0.1512  80.8960 0000977 261.3261 334.2110  0.98954927 40663"}}, "geometry": {"type": "Point", "coordinates": [74.67624440370295, 0.01110298617045065]}}]}